     3.04           N: NAVIGATION DATA  E: GALILEO          RINEX VERSION / TYPE
SimGEN V10.01.00    Spirent             20230120 101000 UTC PGM / RUN BY / DATE
GAL    1.0000D+02  0.0000D+00  0.0000D+00  0.0000D+00 K 01  IONOSPHERIC CORR
GAUT  0.0000000000D+00 0.000000000D+00 468600 2245          TIME SYSTEM CORR
    18                                                      LEAP SECONDS
                                                            END OF HEADER
E01 2023 01 20 10 00 00 0.000000000000D+00 0.000000000000D+00 0.000000000000D+00
     1.200000000000D+01 0.000000000000D+00 0.000000000000D+00-2.081121415655D+00
     0.000000000000D+00 0.000000000000D+00 0.000000000000D+00 5.440588203430D+03
     4.680000000000D+05 0.000000000000D+00 7.386195291653D-01 0.000000000000D+00
     9.773843813769D-01 0.000000000000D+00 0.000000000000D+00 0.000000000000D+00
     0.000000000000D+00 2.630000000000D+02 1.221000000000D+03 0.000000000000D+00
     2.500000000000D-01 0.000000000000D+00 0.000000000000D+00 0.000000000000D+00
     4.680000000000D+05 0.000000000000D+00 0.000000000000D+00 0.000000000000D+00
E02 2023 01 20 10 00 00 0.000000000000D+00 0.000000000000D+00 0.000000000000D+00
     1.200000000000D+01 0.000000000000D+00 0.000000000000D+00-1.295723252257D+00
     0.000000000000D+00 0.000000000000D+00 0.000000000000D+00 5.440588203430D+03
     4.680000000000D+05 0.000000000000D+00 7.386195291653D-01 0.000000000000D+00
     9.773843813769D-01 0.000000000000D+00 0.000000000000D+00 0.000000000000D+00
     0.000000000000D+00 2.630000000000D+02 1.221000000000D+03 0.000000000000D+00
     2.500000000000D-01 0.000000000000D+00 0.000000000000D+00 0.000000000000D+00
     4.680000000000D+05 0.000000000000D+00 0.000000000000D+00 0.000000000000D+00
E03 2023 01 20 10 00 00 0.000000000000D+00 0.000000000000D+00 0.000000000000D+00
     1.200000000000D+01 0.000000000000D+00 0.000000000000D+00-5.103250888598D-01
     0.000000000000D+00 0.000000000000D+00 0.000000000000D+00 5.440588203430D+03
     4.680000000000D+05 0.000000000000D+00 7.386195291653D-01 0.000000000000D+00
     9.773843813769D-01 0.000000000000D+00 0.000000000000D+00 0.000000000000D+00
     0.000000000000D+00 2.630000000000D+02 1.221000000000D+03 0.000000000000D+00
     2.500000000000D-01 0.000000000000D+00 0.000000000000D+00 0.000000000000D+00
     4.680000000000D+05 0.000000000000D+00 0.000000000000D+00 0.000000000000D+00
E04 2023 01 20 10 00 00 0.000000000000D+00 0.000000000000D+00 0.000000000000D+00
     1.200000000000D+01 0.000000000000D+00 0.000000000000D+00 2.750730745377D-01
     0.000000000000D+00 0.000000000000D+00 0.000000000000D+00 5.440588203430D+03
     4.680000000000D+05 0.000000000000D+00 7.386195291653D-01 0.000000000000D+00
     9.773843813769D-01 0.000000000000D+00 0.000000000000D+00 0.000000000000D+00
     0.000000000000D+00 2.630000000000D+02 1.221000000000D+03 0.000000000000D+00
     2.500000000000D-01 0.000000000000D+00 0.000000000000D+00 0.000000000000D+00
     4.680000000000D+05 0.000000000000D+00 0.000000000000D+00 0.000000000000D+00
E05 2023 01 20 10 00 00 0.000000000000D+00 0.000000000000D+00 0.000000000000D+00
     1.200000000000D+01 0.000000000000D+00 0.000000000000D+00 1.060471237935D+00
     0.000000000000D+00 0.000000000000D+00 0.000000000000D+00 5.440588203430D+03
     4.680000000000D+05 0.000000000000D+00 7.386195291653D-01 0.000000000000D+00
     9.773843813769D-01 0.000000000000D+00 0.000000000000D+00 0.000000000000D+00
     0.000000000000D+00 2.630000000000D+02 1.221000000000D+03 0.000000000000D+00
     2.500000000000D-01 0.000000000000D+00 0.000000000000D+00 0.000000000000D+00
     4.680000000000D+05 0.000000000000D+00 0.000000000000D+00 0.000000000000D+00
E06 2023 01 20 10 00 00 0.000000000000D+00 0.000000000000D+00 0.000000000000D+00
     1.200000000000D+01 0.000000000000D+00 0.000000000000D+00 1.845869401333D+00
     0.000000000000D+00 0.000000000000D+00 0.000000000000D+00 5.440588203430D+03
     4.680000000000D+05 0.000000000000D+00 7.386195291653D-01 0.000000000000D+00
     9.773843813769D-01 0.000000000000D+00 0.000000000000D+00 0.000000000000D+00
     0.000000000000D+00 2.630000000000D+02 1.221000000000D+03 0.000000000000D+00
     2.500000000000D-01 0.000000000000D+00 0.000000000000D+00 0.000000000000D+00
     4.680000000000D+05 0.000000000000D+00 0.000000000000D+00 0.000000000000D+00
E07 2023 01 20 10 00 00 0.000000000000D+00 0.000000000000D+00 0.000000000000D+00
     1.200000000000D+01 0.000000000000D+00 0.000000000000D+00 2.631267564730D+00
     0.000000000000D+00 0.000000000000D+00 0.000000000000D+00 5.440588203430D+03
     4.680000000000D+05 0.000000000000D+00 7.386195291653D-01 0.000000000000D+00
     9.773843813769D-01 0.000000000000D+00 0.000000000000D+00 0.000000000000D+00
     0.000000000000D+00 2.630000000000D+02 1.221000000000D+03 0.000000000000D+00
     2.500000000000D-01 0.000000000000D+00 0.000000000000D+00 0.000000000000D+00
     4.680000000000D+05 0.000000000000D+00 0.000000000000D+00 0.000000000000D+00
E08 2023 01 20 10 00 00 0.000000000000D+00 0.000000000000D+00 0.000000000000D+00
     1.200000000000D+01 0.000000000000D+00 0.000000000000D+00-2.866519579052D+00
     0.000000000000D+00 0.000000000000D+00 0.000000000000D+00 5.440588203430D+03
     4.680000000000D+05 0.000000000000D+00 7.386195291653D-01 0.000000000000D+00
     9.773843813769D-01 0.000000000000D+00 0.000000000000D+00 0.000000000000D+00
     0.000000000000D+00 2.630000000000D+02 1.221000000000D+03 0.000000000000D+00
     2.500000000000D-01 0.000000000000D+00 0.000000000000D+00 0.000000000000D+00
     4.680000000000D+05 0.000000000000D+00 0.000000000000D+00 0.000000000000D+00
E09 2023 01 20 10 00 00 0.000000000000D+00 0.000000000000D+00 0.000000000000D+00
     1.200000000000D+01 0.000000000000D+00 0.000000000000D+00-1.819322027368D+00
     0.000000000000D+00 0.000000000000D+00 0.000000000000D+00 5.440588203430D+03
     4.680000000000D+05 0.000000000000D+00 2.833014631071D+00 0.000000000000D+00
     9.773843813769D-01 0.000000000000D+00 0.000000000000D+00 0.000000000000D+00
     0.000000000000D+00 2.630000000000D+02 1.221000000000D+03 0.000000000000D+00
     2.500000000000D-01 0.000000000000D+00 0.000000000000D+00 0.000000000000D+00
     4.680000000000D+05 0.000000000000D+00 0.000000000000D+00 0.000000000000D+00
E10 2023 01 20 10 00 00 0.000000000000D+00 0.000000000000D+00 0.000000000000D+00
     1.200000000000D+01 0.000000000000D+00 0.000000000000D+00-1.033923863970D+00
     0.000000000000D+00 0.000000000000D+00 0.000000000000D+00 5.440588203430D+03
     4.680000000000D+05 0.000000000000D+00 2.833014631071D+00 0.000000000000D+00
     9.773843813769D-01 0.000000000000D+00 0.000000000000D+00 0.000000000000D+00
     0.000000000000D+00 2.630000000000D+02 1.221000000000D+03 0.000000000000D+00
     2.500000000000D-01 0.000000000000D+00 0.000000000000D+00 0.000000000000D+00
     4.680000000000D+05 0.000000000000D+00 0.000000000000D+00 0.000000000000D+00
E11 2023 01 20 10 00 00 0.000000000000D+00 0.000000000000D+00 0.000000000000D+00
     1.200000000000D+01 0.000000000000D+00 0.000000000000D+00-2.485257005730D-01
     0.000000000000D+00 0.000000000000D+00 0.000000000000D+00 5.440588203430D+03
     4.680000000000D+05 0.000000000000D+00 2.833014631071D+00 0.000000000000D+00
     9.773843813769D-01 0.000000000000D+00 0.000000000000D+00 0.000000000000D+00
     0.000000000000D+00 2.630000000000D+02 1.221000000000D+03 0.000000000000D+00
     2.500000000000D-01 0.000000000000D+00 0.000000000000D+00 0.000000000000D+00
     4.680000000000D+05 0.000000000000D+00 0.000000000000D+00 0.000000000000D+00
E12 2023 01 20 10 00 00 0.000000000000D+00 0.000000000000D+00 0.000000000000D+00
     1.200000000000D+01 0.000000000000D+00 0.000000000000D+00 5.368724628245D-01
     0.000000000000D+00 0.000000000000D+00 0.000000000000D+00 5.440588203430D+03
     4.680000000000D+05 0.000000000000D+00 2.833014631071D+00 0.000000000000D+00
     9.773843813769D-01 0.000000000000D+00 0.000000000000D+00 0.000000000000D+00
     0.000000000000D+00 2.630000000000D+02 1.221000000000D+03 0.000000000000D+00
     2.500000000000D-01 0.000000000000D+00 0.000000000000D+00 0.000000000000D+00
     4.680000000000D+05 0.000000000000D+00 0.000000000000D+00 0.000000000000D+00
E13 2023 01 20 10 00 00 0.000000000000D+00 0.000000000000D+00 0.000000000000D+00
     1.200000000000D+01 0.000000000000D+00 0.000000000000D+00 1.322270626222D+00
     0.000000000000D+00 0.000000000000D+00 0.000000000000D+00 5.440588203430D+03
     4.680000000000D+05 0.000000000000D+00 2.833014631071D+00 0.000000000000D+00
     9.773843813769D-01 0.000000000000D+00 0.000000000000D+00 0.000000000000D+00
     0.000000000000D+00 2.630000000000D+02 1.221000000000D+03 0.000000000000D+00
     2.500000000000D-01 0.000000000000D+00 0.000000000000D+00 0.000000000000D+00
     4.680000000000D+05 0.000000000000D+00 0.000000000000D+00 0.000000000000D+00
E14 2023 01 20 10 00 00 0.000000000000D+00 0.000000000000D+00 0.000000000000D+00
     1.200000000000D+01 0.000000000000D+00 0.000000000000D+00 2.107668789619D+00
     0.000000000000D+00 0.000000000000D+00 0.000000000000D+00 5.440588203430D+03
     4.680000000000D+05 0.000000000000D+00 2.833014631071D+00 0.000000000000D+00
     9.773843813769D-01 0.000000000000D+00 0.000000000000D+00 0.000000000000D+00
     0.000000000000D+00 2.630000000000D+02 1.221000000000D+03 0.000000000000D+00
     2.500000000000D-01 0.000000000000D+00 0.000000000000D+00 0.000000000000D+00
     4.680000000000D+05 0.000000000000D+00 0.000000000000D+00 0.000000000000D+00
E15 2023 01 20 10 00 00 0.000000000000D+00 0.000000000000D+00 0.000000000000D+00
     1.200000000000D+01 0.000000000000D+00 0.000000000000D+00 2.893066953017D+00
     0.000000000000D+00 0.000000000000D+00 0.000000000000D+00 5.440588203430D+03
     4.680000000000D+05 0.000000000000D+00 2.833014631071D+00 0.000000000000D+00
     9.773843813769D-01 0.000000000000D+00 0.000000000000D+00 0.000000000000D+00
     0.000000000000D+00 2.630000000000D+02 1.221000000000D+03 0.000000000000D+00
     2.500000000000D-01 0.000000000000D+00 0.000000000000D+00 0.000000000000D+00
     4.680000000000D+05 0.000000000000D+00 0.000000000000D+00 0.000000000000D+00
E16 2023 01 20 10 00 00 0.000000000000D+00 0.000000000000D+00 0.000000000000D+00
     1.200000000000D+01 0.000000000000D+00 0.000000000000D+00-2.604720190765D+00
     0.000000000000D+00 0.000000000000D+00 0.000000000000D+00 5.440588203430D+03
     4.680000000000D+05 0.000000000000D+00 2.833014631071D+00 0.000000000000D+00
     9.773843813769D-01 0.000000000000D+00 0.000000000000D+00 0.000000000000D+00
     0.000000000000D+00 2.630000000000D+02 1.221000000000D+03 0.000000000000D+00
     2.500000000000D-01 0.000000000000D+00 0.000000000000D+00 0.000000000000D+00
     4.680000000000D+05 0.000000000000D+00 0.000000000000D+00 0.000000000000D+00
E17 2023 01 20 10 00 00 0.000000000000D+00 0.000000000000D+00 0.000000000000D+00
     1.200000000000D+01 0.000000000000D+00 0.000000000000D+00-1.557522640544D+00
     0.000000000000D+00 0.000000000000D+00 0.000000000000D+00 5.440588203430D+03
     4.680000000000D+05 0.000000000000D+00-1.355775574203D+00 0.000000000000D+00
     9.773843813769D-01 0.000000000000D+00 0.000000000000D+00 0.000000000000D+00
     0.000000000000D+00 2.630000000000D+02 1.221000000000D+03 0.000000000000D+00
     2.500000000000D-01 0.000000000000D+00 0.000000000000D+00 0.000000000000D+00
     4.680000000000D+05 0.000000000000D+00 0.000000000000D+00 0.000000000000D+00
E18 2023 01 20 10 00 00 0.000000000000D+00 0.000000000000D+00 0.000000000000D+00
     1.200000000000D+01 0.000000000000D+00 0.000000000000D+00-7.721244771466D-01
     0.000000000000D+00 0.000000000000D+00 0.000000000000D+00 5.440588203430D+03
     4.680000000000D+05 0.000000000000D+00-1.355775574203D+00 0.000000000000D+00
     9.773843813769D-01 0.000000000000D+00 0.000000000000D+00 0.000000000000D+00
     0.000000000000D+00 2.630000000000D+02 1.221000000000D+03 0.000000000000D+00
     2.500000000000D-01 0.000000000000D+00 0.000000000000D+00 0.000000000000D+00
     4.680000000000D+05 0.000000000000D+00 0.000000000000D+00 0.000000000000D+00
E19 2023 01 20 10 00 00 0.000000000000D+00 0.000000000000D+00 0.000000000000D+00
     1.200000000000D+01 0.000000000000D+00 0.000000000000D+00 1.327368625088D-02
     0.000000000000D+00 0.000000000000D+00 0.000000000000D+00 5.440588203430D+03
     4.680000000000D+05 0.000000000000D+00-1.355775574203D+00 0.000000000000D+00
     9.773843813769D-01 0.000000000000D+00 0.000000000000D+00 0.000000000000D+00
     0.000000000000D+00 2.630000000000D+02 1.221000000000D+03 0.000000000000D+00
     2.500000000000D-01 0.000000000000D+00 0.000000000000D+00 0.000000000000D+00
     4.680000000000D+05 0.000000000000D+00 0.000000000000D+00 0.000000000000D+00
E20 2023 01 20 10 00 00 0.000000000000D+00 0.000000000000D+00 0.000000000000D+00
     1.200000000000D+01 0.000000000000D+00 0.000000000000D+00 7.986718496483D-01
     0.000000000000D+00 0.000000000000D+00 0.000000000000D+00 5.440588203430D+03
     4.680000000000D+05 0.000000000000D+00-1.355775574203D+00 0.000000000000D+00
     9.773843813769D-01 0.000000000000D+00 0.000000000000D+00 0.000000000000D+00
     0.000000000000D+00 2.630000000000D+02 1.221000000000D+03 0.000000000000D+00
     2.500000000000D-01 0.000000000000D+00 0.000000000000D+00 0.000000000000D+00
     4.680000000000D+05 0.000000000000D+00 0.000000000000D+00 0.000000000000D+00
E21 2023 01 20 10 00 00 0.000000000000D+00 0.000000000000D+00 0.000000000000D+00
     1.200000000000D+01 0.000000000000D+00 0.000000000000D+00 1.584070013046D+00
     0.000000000000D+00 0.000000000000D+00 0.000000000000D+00 5.440588203430D+03
     4.680000000000D+05 0.000000000000D+00-1.355775574203D+00 0.000000000000D+00
     9.773843813769D-01 0.000000000000D+00 0.000000000000D+00 0.000000000000D+00
     0.000000000000D+00 2.630000000000D+02 1.221000000000D+03 0.000000000000D+00
     2.500000000000D-01 0.000000000000D+00 0.000000000000D+00 0.000000000000D+00
     4.680000000000D+05 0.000000000000D+00 0.000000000000D+00 0.000000000000D+00
E22 2023 01 20 10 00 00 0.000000000000D+00 0.000000000000D+00 0.000000000000D+00
     1.200000000000D+01 0.000000000000D+00 0.000000000000D+00 2.369468176443D+00
     0.000000000000D+00 0.000000000000D+00 0.000000000000D+00 5.440588203430D+03
     4.680000000000D+05 0.000000000000D+00-1.355775574203D+00 0.000000000000D+00
     9.773843813769D-01 0.000000000000D+00 0.000000000000D+00 0.000000000000D+00
     0.000000000000D+00 2.630000000000D+02 1.221000000000D+03 0.000000000000D+00
     2.500000000000D-01 0.000000000000D+00 0.000000000000D+00 0.000000000000D+00
     4.680000000000D+05 0.000000000000D+00 0.000000000000D+00 0.000000000000D+00
E23 2023 01 20 10 00 00 0.000000000000D+00 0.000000000000D+00 0.000000000000D+00
     1.200000000000D+01 0.000000000000D+00 0.000000000000D+00-3.128318967339D+00
     0.000000000000D+00 0.000000000000D+00 0.000000000000D+00 5.440588203430D+03
     4.680000000000D+05 0.000000000000D+00-1.355775574203D+00 0.000000000000D+00
     9.773843813769D-01 0.000000000000D+00 0.000000000000D+00 0.000000000000D+00
     0.000000000000D+00 2.630000000000D+02 1.221000000000D+03 0.000000000000D+00
     2.500000000000D-01 0.000000000000D+00 0.000000000000D+00 0.000000000000D+00
     4.680000000000D+05 0.000000000000D+00 0.000000000000D+00 0.000000000000D+00
E24 2023 01 20 10 00 00 0.000000000000D+00 0.000000000000D+00 0.000000000000D+00
     1.200000000000D+01 0.000000000000D+00 0.000000000000D+00-2.342920803941D+00
     0.000000000000D+00 0.000000000000D+00 0.000000000000D+00 5.440588203430D+03
     4.680000000000D+05 0.000000000000D+00-1.355775574203D+00 0.000000000000D+00
     9.773843813769D-01 0.000000000000D+00 0.000000000000D+00 0.000000000000D+00
     0.000000000000D+00 2.630000000000D+02 1.221000000000D+03 0.000000000000D+00
     2.500000000000D-01 0.000000000000D+00 0.000000000000D+00 0.000000000000D+00
     4.680000000000D+05 0.000000000000D+00 0.000000000000D+00 0.000000000000D+00
E25 2023 01 20 10 00 00 0.000000000000D+00 0.000000000000D+00 0.000000000000D+00
     1.200000000000D+01 0.000000000000D+00 0.000000000000D+00-1.688422333956D+00
     0.000000000000D+00 0.000000000000D+00 0.000000000000D+00 5.440588203430D+03
     4.680000000000D+05 0.000000000000D+00 7.386195291653D-01 0.000000000000D+00
     9.773843813769D-01 0.000000000000D+00 0.000000000000D+00 0.000000000000D+00
     0.000000000000D+00 2.630000000000D+02 1.221000000000D+03 0.000000000000D+00
     2.500000000000D-01 0.000000000000D+00 0.000000000000D+00 0.000000000000D+00
     4.680000000000D+05 0.000000000000D+00 0.000000000000D+00 0.000000000000D+00
E26 2023 01 20 10 00 00 0.000000000000D+00 0.000000000000D+00 0.000000000000D+00
     1.200000000000D+01 0.000000000000D+00 0.000000000000D+00 1.453170319634D+00
     0.000000000000D+00 0.000000000000D+00 0.000000000000D+00 5.440588203430D+03
     4.680000000000D+05 0.000000000000D+00 7.386195291653D-01 0.000000000000D+00
     9.773843813769D-01 0.000000000000D+00 0.000000000000D+00 0.000000000000D+00
     0.000000000000D+00 2.630000000000D+02 1.221000000000D+03 0.000000000000D+00
     2.500000000000D-01 0.000000000000D+00 0.000000000000D+00 0.000000000000D+00
     4.680000000000D+05 0.000000000000D+00 0.000000000000D+00 0.000000000000D+00
E27 2023 01 20 10 00 00 0.000000000000D+00 0.000000000000D+00 0.000000000000D+00
     1.200000000000D+01 0.000000000000D+00 0.000000000000D+00 1.441733811257D-01
     0.000000000000D+00 0.000000000000D+00 0.000000000000D+00 5.440588203430D+03
     4.680000000000D+05 0.000000000000D+00 2.833014631071D+00 0.000000000000D+00
     9.773843813769D-01 0.000000000000D+00 0.000000000000D+00 0.000000000000D+00
     0.000000000000D+00 2.630000000000D+02 1.221000000000D+03 0.000000000000D+00
     0.000000000000D+00 0.000000000000D+00 0.000000000000D+00 0.000000000000D+00
     4.680000000000D+05 0.000000000000D+00 0.000000000000D+00 0.000000000000D+00
E01 2023 01 20 10 10 00 0.000000000000D+00 0.000000000000D+00 0.000000000000D+00
     1.300000000000D+01 0.000000000000D+00 0.000000000000D+00-2.006736894064D+00
     0.000000000000D+00 0.000000000000D+00 0.000000000000D+00 5.440588203430D+03
     4.686000000000D+05 0.000000000000D+00 7.386195291653D-01 0.000000000000D+00
     9.773843813769D-01 0.000000000000D+00 0.000000000000D+00 0.000000000000D+00
     0.000000000000D+00 2.630000000000D+02 1.221000000000D+03 0.000000000000D+00
     2.500000000000D-01 0.000000000000D+00 0.000000000000D+00 0.000000000000D+00
     4.686000000000D+05 0.000000000000D+00 0.000000000000D+00 0.000000000000D+00
E02 2023 01 20 10 10 00 0.000000000000D+00 0.000000000000D+00 0.000000000000D+00
     1.300000000000D+01 0.000000000000D+00 0.000000000000D+00-1.221338730666D+00
     0.000000000000D+00 0.000000000000D+00 0.000000000000D+00 5.440588203430D+03
     4.686000000000D+05 0.000000000000D+00 7.386195291653D-01 0.000000000000D+00
     9.773843813769D-01 0.000000000000D+00 0.000000000000D+00 0.000000000000D+00
     0.000000000000D+00 2.630000000000D+02 1.221000000000D+03 0.000000000000D+00
     2.500000000000D-01 0.000000000000D+00 0.000000000000D+00 0.000000000000D+00
     4.686000000000D+05 0.000000000000D+00 0.000000000000D+00 0.000000000000D+00
E03 2023 01 20 10 10 00 0.000000000000D+00 0.000000000000D+00 0.000000000000D+00
     1.300000000000D+01 0.000000000000D+00 0.000000000000D+00-4.359405672687D-01
     0.000000000000D+00 0.000000000000D+00 0.000000000000D+00 5.440588203430D+03
     4.686000000000D+05 0.000000000000D+00 7.386195291653D-01 0.000000000000D+00
     9.773843813769D-01 0.000000000000D+00 0.000000000000D+00 0.000000000000D+00
     0.000000000000D+00 2.630000000000D+02 1.221000000000D+03 0.000000000000D+00
     2.500000000000D-01 0.000000000000D+00 0.000000000000D+00 0.000000000000D+00
     4.686000000000D+05 0.000000000000D+00 0.000000000000D+00 0.000000000000D+00
E04 2023 01 20 10 10 00 0.000000000000D+00 0.000000000000D+00 0.000000000000D+00
     1.300000000000D+01 0.000000000000D+00 0.000000000000D+00 3.494575961287D-01
     0.000000000000D+00 0.000000000000D+00 0.000000000000D+00 5.440588203430D+03
     4.686000000000D+05 0.000000000000D+00 7.386195291653D-01 0.000000000000D+00
     9.773843813769D-01 0.000000000000D+00 0.000000000000D+00 0.000000000000D+00
     0.000000000000D+00 2.630000000000D+02 1.221000000000D+03 0.000000000000D+00
     2.500000000000D-01 0.000000000000D+00 0.000000000000D+00 0.000000000000D+00
     4.686000000000D+05 0.000000000000D+00 0.000000000000D+00 0.000000000000D+00
E05 2023 01 20 10 10 00 0.000000000000D+00 0.000000000000D+00 0.000000000000D+00
     1.300000000000D+01 0.000000000000D+00 0.000000000000D+00 1.134855759526D+00
     0.000000000000D+00 0.000000000000D+00 0.000000000000D+00 5.440588203430D+03
     4.686000000000D+05 0.000000000000D+00 7.386195291653D-01 0.000000000000D+00
     9.773843813769D-01 0.000000000000D+00 0.000000000000D+00 0.000000000000D+00
     0.000000000000D+00 2.630000000000D+02 1.221000000000D+03 0.000000000000D+00
     2.500000000000D-01 0.000000000000D+00 0.000000000000D+00 0.000000000000D+00
     4.686000000000D+05 0.000000000000D+00 0.000000000000D+00 0.000000000000D+00
E06 2023 01 20 10 10 00 0.000000000000D+00 0.000000000000D+00 0.000000000000D+00
     1.300000000000D+01 0.000000000000D+00 0.000000000000D+00 1.920253922924D+00
     0.000000000000D+00 0.000000000000D+00 0.000000000000D+00 5.440588203430D+03
     4.686000000000D+05 0.000000000000D+00 7.386195291653D-01 0.000000000000D+00
     9.773843813769D-01 0.000000000000D+00 0.000000000000D+00 0.000000000000D+00
     0.000000000000D+00 2.630000000000D+02 1.221000000000D+03 0.000000000000D+00
     2.500000000000D-01 0.000000000000D+00 0.000000000000D+00 0.000000000000D+00
     4.686000000000D+05 0.000000000000D+00 0.000000000000D+00 0.000000000000D+00
E07 2023 01 20 10 10 00 0.000000000000D+00 0.000000000000D+00 0.000000000000D+00
     1.300000000000D+01 0.000000000000D+00 0.000000000000D+00 2.705652086321D+00
     0.000000000000D+00 0.000000000000D+00 0.000000000000D+00 5.440588203430D+03
     4.686000000000D+05 0.000000000000D+00 7.386195291653D-01 0.000000000000D+00
     9.773843813769D-01 0.000000000000D+00 0.000000000000D+00 0.000000000000D+00
     0.000000000000D+00 2.630000000000D+02 1.221000000000D+03 0.000000000000D+00
     2.500000000000D-01 0.000000000000D+00 0.000000000000D+00 0.000000000000D+00
     4.686000000000D+05 0.000000000000D+00 0.000000000000D+00 0.000000000000D+00
E08 2023 01 20 10 10 00 0.000000000000D+00 0.000000000000D+00 0.000000000000D+00
     1.300000000000D+01 0.000000000000D+00 0.000000000000D+00-2.792135057461D+00
     0.000000000000D+00 0.000000000000D+00 0.000000000000D+00 5.440588203430D+03
     4.686000000000D+05 0.000000000000D+00 7.386195291653D-01 0.000000000000D+00
     9.773843813769D-01 0.000000000000D+00 0.000000000000D+00 0.000000000000D+00
     0.000000000000D+00 2.630000000000D+02 1.221000000000D+03 0.000000000000D+00
     2.500000000000D-01 0.000000000000D+00 0.000000000000D+00 0.000000000000D+00
     4.686000000000D+05 0.000000000000D+00 0.000000000000D+00 0.000000000000D+00
E09 2023 01 20 10 10 00 0.000000000000D+00 0.000000000000D+00 0.000000000000D+00
     1.300000000000D+01 0.000000000000D+00 0.000000000000D+00-1.744937507240D+00
     0.000000000000D+00 0.000000000000D+00 0.000000000000D+00 5.440588203430D+03
     4.686000000000D+05 0.000000000000D+00 2.833014631071D+00 0.000000000000D+00
     9.773843813769D-01 0.000000000000D+00 0.000000000000D+00 0.000000000000D+00
     0.000000000000D+00 2.630000000000D+02 1.221000000000D+03 0.000000000000D+00
     2.500000000000D-01 0.000000000000D+00 0.000000000000D+00 0.000000000000D+00
     4.686000000000D+05 0.000000000000D+00 0.000000000000D+00 0.000000000000D+00
E10 2023 01 20 10 10 00 0.000000000000D+00 0.000000000000D+00 0.000000000000D+00
     1.300000000000D+01 0.000000000000D+00 0.000000000000D+00-9.595393438423D-01
     0.000000000000D+00 0.000000000000D+00 0.000000000000D+00 5.440588203430D+03
     4.686000000000D+05 0.000000000000D+00 2.833014631071D+00 0.000000000000D+00
     9.773843813769D-01 0.000000000000D+00 0.000000000000D+00 0.000000000000D+00
     0.000000000000D+00 2.630000000000D+02 1.221000000000D+03 0.000000000000D+00
     2.500000000000D-01 0.000000000000D+00 0.000000000000D+00 0.000000000000D+00
     4.686000000000D+05 0.000000000000D+00 0.000000000000D+00 0.000000000000D+00
E11 2023 01 20 10 10 00 0.000000000000D+00 0.000000000000D+00 0.000000000000D+00
     1.300000000000D+01 0.000000000000D+00 0.000000000000D+00-1.741411804449D-01
     0.000000000000D+00 0.000000000000D+00 0.000000000000D+00 5.440588203430D+03
     4.686000000000D+05 0.000000000000D+00 2.833014631071D+00 0.000000000000D+00
     9.773843813769D-01 0.000000000000D+00 0.000000000000D+00 0.000000000000D+00
     0.000000000000D+00 2.630000000000D+02 1.221000000000D+03 0.000000000000D+00
     2.500000000000D-01 0.000000000000D+00 0.000000000000D+00 0.000000000000D+00
     4.686000000000D+05 0.000000000000D+00 0.000000000000D+00 0.000000000000D+00
E12 2023 01 20 10 10 00 0.000000000000D+00 0.000000000000D+00 0.000000000000D+00
     1.300000000000D+01 0.000000000000D+00 0.000000000000D+00 6.112569829526D-01
     0.000000000000D+00 0.000000000000D+00 0.000000000000D+00 5.440588203430D+03
     4.686000000000D+05 0.000000000000D+00 2.833014631071D+00 0.000000000000D+00
     9.773843813769D-01 0.000000000000D+00 0.000000000000D+00 0.000000000000D+00
     0.000000000000D+00 2.630000000000D+02 1.221000000000D+03 0.000000000000D+00
     2.500000000000D-01 0.000000000000D+00 0.000000000000D+00 0.000000000000D+00
     4.686000000000D+05 0.000000000000D+00 0.000000000000D+00 0.000000000000D+00
E13 2023 01 20 10 10 00 0.000000000000D+00 0.000000000000D+00 0.000000000000D+00
     1.300000000000D+01 0.000000000000D+00 0.000000000000D+00 1.396655146350D+00
     0.000000000000D+00 0.000000000000D+00 0.000000000000D+00 5.440588203430D+03
     4.686000000000D+05 0.000000000000D+00 2.833014631071D+00 0.000000000000D+00
     9.773843813769D-01 0.000000000000D+00 0.000000000000D+00 0.000000000000D+00
     0.000000000000D+00 2.630000000000D+02 1.221000000000D+03 0.000000000000D+00
     2.500000000000D-01 0.000000000000D+00 0.000000000000D+00 0.000000000000D+00
     4.686000000000D+05 0.000000000000D+00 0.000000000000D+00 0.000000000000D+00
E14 2023 01 20 10 10 00 0.000000000000D+00 0.000000000000D+00 0.000000000000D+00
     1.300000000000D+01 0.000000000000D+00 0.000000000000D+00 2.182053309747D+00
     0.000000000000D+00 0.000000000000D+00 0.000000000000D+00 5.440588203430D+03
     4.686000000000D+05 0.000000000000D+00 2.833014631071D+00 0.000000000000D+00
     9.773843813769D-01 0.000000000000D+00 0.000000000000D+00 0.000000000000D+00
     0.000000000000D+00 2.630000000000D+02 1.221000000000D+03 0.000000000000D+00
     2.500000000000D-01 0.000000000000D+00 0.000000000000D+00 0.000000000000D+00
     4.686000000000D+05 0.000000000000D+00 0.000000000000D+00 0.000000000000D+00
E15 2023 01 20 10 10 00 0.000000000000D+00 0.000000000000D+00 0.000000000000D+00
     1.300000000000D+01 0.000000000000D+00 0.000000000000D+00 2.967451473145D+00
     0.000000000000D+00 0.000000000000D+00 0.000000000000D+00 5.440588203430D+03
     4.686000000000D+05 0.000000000000D+00 2.833014631071D+00 0.000000000000D+00
     9.773843813769D-01 0.000000000000D+00 0.000000000000D+00 0.000000000000D+00
     0.000000000000D+00 2.630000000000D+02 1.221000000000D+03 0.000000000000D+00
     2.500000000000D-01 0.000000000000D+00 0.000000000000D+00 0.000000000000D+00
     4.686000000000D+05 0.000000000000D+00 0.000000000000D+00 0.000000000000D+00
E16 2023 01 20 10 10 00 0.000000000000D+00 0.000000000000D+00 0.000000000000D+00
     1.300000000000D+01 0.000000000000D+00 0.000000000000D+00-2.530335670637D+00
     0.000000000000D+00 0.000000000000D+00 0.000000000000D+00 5.440588203430D+03
     4.686000000000D+05 0.000000000000D+00 2.833014631071D+00 0.000000000000D+00
     9.773843813769D-01 0.000000000000D+00 0.000000000000D+00 0.000000000000D+00
     0.000000000000D+00 2.630000000000D+02 1.221000000000D+03 0.000000000000D+00
     2.500000000000D-01 0.000000000000D+00 0.000000000000D+00 0.000000000000D+00
     4.686000000000D+05 0.000000000000D+00 0.000000000000D+00 0.000000000000D+00
E17 2023 01 20 10 10 00 0.000000000000D+00 0.000000000000D+00 0.000000000000D+00
     1.300000000000D+01 0.000000000000D+00 0.000000000000D+00-1.483138118953D+00
     0.000000000000D+00 0.000000000000D+00 0.000000000000D+00 5.440588203430D+03
     4.686000000000D+05 0.000000000000D+00-1.355775574203D+00 0.000000000000D+00
     9.773843813769D-01 0.000000000000D+00 0.000000000000D+00 0.000000000000D+00
     0.000000000000D+00 2.630000000000D+02 1.221000000000D+03 0.000000000000D+00
     2.500000000000D-01 0.000000000000D+00 0.000000000000D+00 0.000000000000D+00
     4.686000000000D+05 0.000000000000D+00 0.000000000000D+00 0.000000000000D+00
E18 2023 01 20 10 10 00 0.000000000000D+00 0.000000000000D+00 0.000000000000D+00
     1.300000000000D+01 0.000000000000D+00 0.000000000000D+00-6.977399555555D-01
     0.000000000000D+00 0.000000000000D+00 0.000000000000D+00 5.440588203430D+03
     4.686000000000D+05 0.000000000000D+00-1.355775574203D+00 0.000000000000D+00
     9.773843813769D-01 0.000000000000D+00 0.000000000000D+00 0.000000000000D+00
     0.000000000000D+00 2.630000000000D+02 1.221000000000D+03 0.000000000000D+00
     2.500000000000D-01 0.000000000000D+00 0.000000000000D+00 0.000000000000D+00
     4.686000000000D+05 0.000000000000D+00 0.000000000000D+00 0.000000000000D+00
E19 2023 01 20 10 10 00 0.000000000000D+00 0.000000000000D+00 0.000000000000D+00
     1.300000000000D+01 0.000000000000D+00 0.000000000000D+00 8.765820784192D-02
     0.000000000000D+00 0.000000000000D+00 0.000000000000D+00 5.440588203430D+03
     4.686000000000D+05 0.000000000000D+00-1.355775574203D+00 0.000000000000D+00
     9.773843813769D-01 0.000000000000D+00 0.000000000000D+00 0.000000000000D+00
     0.000000000000D+00 2.630000000000D+02 1.221000000000D+03 0.000000000000D+00
     2.500000000000D-01 0.000000000000D+00 0.000000000000D+00 0.000000000000D+00
     4.686000000000D+05 0.000000000000D+00 0.000000000000D+00 0.000000000000D+00
E20 2023 01 20 10 10 00 0.000000000000D+00 0.000000000000D+00 0.000000000000D+00
     1.300000000000D+01 0.000000000000D+00 0.000000000000D+00 8.730563712394D-01
     0.000000000000D+00 0.000000000000D+00 0.000000000000D+00 5.440588203430D+03
     4.686000000000D+05 0.000000000000D+00-1.355775574203D+00 0.000000000000D+00
     9.773843813769D-01 0.000000000000D+00 0.000000000000D+00 0.000000000000D+00
     0.000000000000D+00 2.630000000000D+02 1.221000000000D+03 0.000000000000D+00
     2.500000000000D-01 0.000000000000D+00 0.000000000000D+00 0.000000000000D+00
     4.686000000000D+05 0.000000000000D+00 0.000000000000D+00 0.000000000000D+00
E21 2023 01 20 10 10 00 0.000000000000D+00 0.000000000000D+00 0.000000000000D+00
     1.300000000000D+01 0.000000000000D+00 0.000000000000D+00 1.658454534637D+00
     0.000000000000D+00 0.000000000000D+00 0.000000000000D+00 5.440588203430D+03
     4.686000000000D+05 0.000000000000D+00-1.355775574203D+00 0.000000000000D+00
     9.773843813769D-01 0.000000000000D+00 0.000000000000D+00 0.000000000000D+00
     0.000000000000D+00 2.630000000000D+02 1.221000000000D+03 0.000000000000D+00
     2.500000000000D-01 0.000000000000D+00 0.000000000000D+00 0.000000000000D+00
     4.686000000000D+05 0.000000000000D+00 0.000000000000D+00 0.000000000000D+00
E22 2023 01 20 10 10 00 0.000000000000D+00 0.000000000000D+00 0.000000000000D+00
     1.300000000000D+01 0.000000000000D+00 0.000000000000D+00 2.443852698034D+00
     0.000000000000D+00 0.000000000000D+00 0.000000000000D+00 5.440588203430D+03
     4.686000000000D+05 0.000000000000D+00-1.355775574203D+00 0.000000000000D+00
     9.773843813769D-01 0.000000000000D+00 0.000000000000D+00 0.000000000000D+00
     0.000000000000D+00 2.630000000000D+02 1.221000000000D+03 0.000000000000D+00
     2.500000000000D-01 0.000000000000D+00 0.000000000000D+00 0.000000000000D+00
     4.686000000000D+05 0.000000000000D+00 0.000000000000D+00 0.000000000000D+00
E23 2023 01 20 10 10 00 0.000000000000D+00 0.000000000000D+00 0.000000000000D+00
     1.300000000000D+01 0.000000000000D+00 0.000000000000D+00-3.053934445748D+00
     0.000000000000D+00 0.000000000000D+00 0.000000000000D+00 5.440588203430D+03
     4.686000000000D+05 0.000000000000D+00-1.355775574203D+00 0.000000000000D+00
     9.773843813769D-01 0.000000000000D+00 0.000000000000D+00 0.000000000000D+00
     0.000000000000D+00 2.630000000000D+02 1.221000000000D+03 0.000000000000D+00
     2.500000000000D-01 0.000000000000D+00 0.000000000000D+00 0.000000000000D+00
     4.686000000000D+05 0.000000000000D+00 0.000000000000D+00 0.000000000000D+00
E24 2023 01 20 10 10 00 0.000000000000D+00 0.000000000000D+00 0.000000000000D+00
     1.300000000000D+01 0.000000000000D+00 0.000000000000D+00-2.268536282350D+00
     0.000000000000D+00 0.000000000000D+00 0.000000000000D+00 5.440588203430D+03
     4.686000000000D+05 0.000000000000D+00-1.355775574203D+00 0.000000000000D+00
     9.773843813769D-01 0.000000000000D+00 0.000000000000D+00 0.000000000000D+00
     0.000000000000D+00 2.630000000000D+02 1.221000000000D+03 0.000000000000D+00
     2.500000000000D-01 0.000000000000D+00 0.000000000000D+00 0.000000000000D+00
     4.686000000000D+05 0.000000000000D+00 0.000000000000D+00 0.000000000000D+00
E25 2023 01 20 10 10 00 0.000000000000D+00 0.000000000000D+00 0.000000000000D+00
     1.300000000000D+01 0.000000000000D+00 0.000000000000D+00-1.614037812365D+00
     0.000000000000D+00 0.000000000000D+00 0.000000000000D+00 5.440588203430D+03
     4.686000000000D+05 0.000000000000D+00 7.386195291653D-01 0.000000000000D+00
     9.773843813769D-01 0.000000000000D+00 0.000000000000D+00 0.000000000000D+00
     0.000000000000D+00 2.630000000000D+02 1.221000000000D+03 0.000000000000D+00
     2.500000000000D-01 0.000000000000D+00 0.000000000000D+00 0.000000000000D+00
     4.686000000000D+05 0.000000000000D+00 0.000000000000D+00 0.000000000000D+00
E26 2023 01 20 10 10 00 0.000000000000D+00 0.000000000000D+00 0.000000000000D+00
     1.300000000000D+01 0.000000000000D+00 0.000000000000D+00 1.527554841225D+00
     0.000000000000D+00 0.000000000000D+00 0.000000000000D+00 5.440588203430D+03
     4.686000000000D+05 0.000000000000D+00 7.386195291653D-01 0.000000000000D+00
     9.773843813769D-01 0.000000000000D+00 0.000000000000D+00 0.000000000000D+00
     0.000000000000D+00 2.630000000000D+02 1.221000000000D+03 0.000000000000D+00
     2.500000000000D-01 0.000000000000D+00 0.000000000000D+00 0.000000000000D+00
     4.686000000000D+05 0.000000000000D+00 0.000000000000D+00 0.000000000000D+00
E27 2023 01 20 10 10 00 0.000000000000D+00 0.000000000000D+00 0.000000000000D+00
     1.300000000000D+01 0.000000000000D+00 0.000000000000D+00 2.185579012539D-01
     0.000000000000D+00 0.000000000000D+00 0.000000000000D+00 5.440588203430D+03
     4.686000000000D+05 0.000000000000D+00 2.833014631071D+00 0.000000000000D+00
     9.773843813769D-01 0.000000000000D+00 0.000000000000D+00 0.000000000000D+00
     0.000000000000D+00 2.630000000000D+02 1.221000000000D+03 0.000000000000D+00
     0.000000000000D+00 0.000000000000D+00 0.000000000000D+00 0.000000000000D+00
     4.686000000000D+05 0.000000000000D+00 0.000000000000D+00 0.000000000000D+00
EOF!
