     3.04           N: NAVIGATION DATA  G: GPS              RINEX VERSION / TYPE
SimGEN V10.01.00    Spirent             20230120 120000 UTC PGM / RUN BY / DATE
GPSA   4.3000D-09  1.2000D-08 -3.4000D-08 -8.8000D-08 K 01  IONOSPHERIC CORR
GPSB   8.0000D+04  6.3000D+04 -8.3000D+04 -4.1000D+05 K 01  IONOSPHERIC CORR
GPUT  0.0000000000D+00 0.000000000D+00 114688 2246          TIME SYSTEM CORR
    18                                                      LEAP SECONDS
                                                            END OF HEADER
G01 2023 01 20 12 00 00 0.000000000000D+00 0.000000000000D+00 0.000000000000D+00
     0.000000000000D+00 0.000000000000D+00 0.000000000000D+00-1.148362557384D+00
     0.000000000000D+00 0.000000000000D+00 0.000000000000D+00 5.153700811386D+03
     4.752000000000D+05 0.000000000000D+00 3.042750233686D+00 0.000000000000D+00
     9.599310884343D-01 0.000000000000D+00-1.201977729643D+00 0.000000000000D+00
     0.000000000000D+00 1.000000000000D+00 2.245000000000D+03 0.000000000000D+00
     1.200000000000D+00 0.000000000000D+00 0.000000000000D+00 0.000000000000D+00
     4.752000000000D+05 0.000000000000D+00 0.000000000000D+00 0.000000000000D+00
G02 2023 01 20 12 00 00 0.000000000000D+00 0.000000000000D+00 0.000000000000D+00
     0.000000000000D+00 0.000000000000D+00 0.000000000000D+00-1.109998616241D-01
     0.000000000000D+00 0.000000000000D+00 0.000000000000D+00 5.153700811386D+03
     4.752000000000D+05 0.000000000000D+00 1.898275489354D+00 0.000000000000D+00
     9.599310884343D-01 0.000000000000D+00 2.714100717646D+00 0.000000000000D+00
     0.000000000000D+00 1.000000000000D+00 2.245000000000D+03 0.000000000000D+00
     1.200000000000D+00 0.000000000000D+00 0.000000000000D+00 0.000000000000D+00
     4.752000000000D+05 0.000000000000D+00 0.000000000000D+00 0.000000000000D+00
G03 2023 01 20 12 00 00 0.000000000000D+00 0.000000000000D+00 0.000000000000D+00
     0.000000000000D+00 0.000000000000D+00 0.000000000000D+00-4.695165545519D-01
     0.000000000000D+00 0.000000000000D+00 0.000000000000D+00 5.153700811386D+03
     4.752000000000D+05 0.000000000000D+00 7.516739313107D-01 0.000000000000D+00
     9.599310884343D-01 0.000000000000D+00 8.899440766458D-01 0.000000000000D+00
     0.000000000000D+00 1.000000000000D+00 2.245000000000D+03 0.000000000000D+00
     1.200000000000D+00 0.000000000000D+00 0.000000000000D+00 0.000000000000D+00
     4.752000000000D+05 0.000000000000D+00 0.000000000000D+00 0.000000000000D+00
G04 2023 01 20 12 00 00 0.000000000000D+00 0.000000000000D+00 0.000000000000D+00
     0.000000000000D+00 0.000000000000D+00 0.000000000000D+00 2.725007017697D+00
     0.000000000000D+00 0.000000000000D+00 0.000000000000D+00 5.153700811386D+03
     4.752000000000D+05 0.000000000000D+00 1.916798943444D+00 0.000000000000D+00
     9.599310884343D-01 0.000000000000D+00 4.732911596880D-01 0.000000000000D+00
     0.000000000000D+00 1.000000000000D+00 2.245000000000D+03 0.000000000000D+00
     1.200000000000D+00 0.000000000000D+00 0.000000000000D+00 0.000000000000D+00
     4.752000000000D+05 0.000000000000D+00 0.000000000000D+00 0.000000000000D+00
G05 2023 01 20 12 00 00 0.000000000000D+00 0.000000000000D+00 0.000000000000D+00
     0.000000000000D+00 0.000000000000D+00 0.000000000000D+00 2.332281789264D+00
     0.000000000000D+00 0.000000000000D+00 0.000000000000D+00 5.153700811386D+03
     4.752000000000D+05 0.000000000000D+00-2.789267357667D-01 0.000000000000D+00
     9.599310884343D-01 0.000000000000D+00 1.294986128799D+00 0.000000000000D+00
     0.000000000000D+00 1.000000000000D+00 2.245000000000D+03 0.000000000000D+00
     1.200000000000D+00 0.000000000000D+00 0.000000000000D+00 0.000000000000D+00
     4.752000000000D+05 0.000000000000D+00 0.000000000000D+00 0.000000000000D+00
G06 2023 01 20 12 00 00 0.000000000000D+00 0.000000000000D+00 0.000000000000D+00
     0.000000000000D+00 0.000000000000D+00 0.000000000000D+00 2.055509528062D+00
     0.000000000000D+00 0.000000000000D+00 0.000000000000D+00 5.153700811386D+03
     4.752000000000D+05 0.000000000000D+00 8.183422037175D-01 0.000000000000D+00
     9.599310884343D-01 0.000000000000D+00-1.463009119585D+00 0.000000000000D+00
     0.000000000000D+00 1.000000000000D+00 2.245000000000D+03 0.000000000000D+00
     1.200000000000D+00 0.000000000000D+00 0.000000000000D+00 0.000000000000D+00
     4.752000000000D+05 0.000000000000D+00 0.000000000000D+00 0.000000000000D+00
G07 2023 01 20 12 00 00 0.000000000000D+00 0.000000000000D+00 0.000000000000D+00
     0.000000000000D+00 0.000000000000D+00 0.000000000000D+00-1.930170336531D+00
     0.000000000000D+00 0.000000000000D+00 0.000000000000D+00 5.153700811386D+03
     4.752000000000D+05 0.000000000000D+00-1.231352811610D+00 0.000000000000D+00
     9.599310884343D-01 0.000000000000D+00 2.923551320413D+00 0.000000000000D+00
     0.000000000000D+00 1.000000000000D+00 2.245000000000D+03 0.000000000000D+00
     1.200000000000D+00 0.000000000000D+00 0.000000000000D+00 0.000000000000D+00
     4.752000000000D+05 0.000000000000D+00 0.000000000000D+00 0.000000000000D+00
G08 2023 01 20 12 00 00 0.000000000000D+00 0.000000000000D+00 0.000000000000D+00
     0.000000000000D+00 0.000000000000D+00 0.000000000000D+00-2.600258929919D+00
     0.000000000000D+00 0.000000000000D+00 0.000000000000D+00 5.153700811386D+03
     4.752000000000D+05 0.000000000000D+00-1.173264508388D+00 0.000000000000D+00
     9.599310884343D-01 0.000000000000D+00 2.976520061357D+00 0.000000000000D+00
     0.000000000000D+00 1.000000000000D+00 2.245000000000D+03 0.000000000000D+00
     1.200000000000D+00 0.000000000000D+00 0.000000000000D+00 0.000000000000D+00
     4.752000000000D+05 0.000000000000D+00 0.000000000000D+00 0.000000000000D+00
G09 2023 01 20 12 00 00 0.000000000000D+00 0.000000000000D+00 0.000000000000D+00
     0.000000000000D+00 0.000000000000D+00 0.000000000000D+00-2.856806739273D+00
     0.000000000000D+00 0.000000000000D+00 0.000000000000D+00 5.153700811386D+03
     4.752000000000D+05 0.000000000000D+00-1.266194228883D+00 0.000000000000D+00
     9.599310884343D-01 0.000000000000D+00 1.459411144252D+00 0.000000000000D+00
     0.000000000000D+00 1.000000000000D+00 2.245000000000D+03 0.000000000000D+00
     1.200000000000D+00 0.000000000000D+00 0.000000000000D+00 0.000000000000D+00
     4.752000000000D+05 0.000000000000D+00 0.000000000000D+00 0.000000000000D+00
G10 2023 01 20 12 00 00 0.000000000000D+00 0.000000000000D+00 0.000000000000D+00
     0.000000000000D+00 0.000000000000D+00 0.000000000000D+00 7.498026689079D-01
     0.000000000000D+00 0.000000000000D+00 0.000000000000D+00 5.153700811386D+03
     4.752000000000D+05 0.000000000000D+00 2.982219452679D+00 0.000000000000D+00
     9.599310884343D-01 0.000000000000D+00 5.908354526339D-01 0.000000000000D+00
     0.000000000000D+00 1.000000000000D+00 2.245000000000D+03 0.000000000000D+00
     1.200000000000D+00 0.000000000000D+00 0.000000000000D+00 0.000000000000D+00
     4.752000000000D+05 0.000000000000D+00 0.000000000000D+00 0.000000000000D+00
G11 2023 01 20 12 00 00 0.000000000000D+00 0.000000000000D+00 0.000000000000D+00
     0.000000000000D+00 0.000000000000D+00 0.000000000000D+00-2.068295701252D+00
     0.000000000000D+00 0.000000000000D+00 0.000000000000D+00 5.153700811386D+03
     4.752000000000D+05 0.000000000000D+00 1.703648680834D+00 0.000000000000D+00
     9.599310884343D-01 0.000000000000D+00 6.840685603956D-01 0.000000000000D+00
     0.000000000000D+00 1.000000000000D+00 2.245000000000D+03 0.000000000000D+00
     1.200000000000D+00 0.000000000000D+00 0.000000000000D+00 0.000000000000D+00
     4.752000000000D+05 0.000000000000D+00 0.000000000000D+00 0.000000000000D+00
G12 2023 01 20 12 00 00 0.000000000000D+00 0.000000000000D+00 0.000000000000D+00
     0.000000000000D+00 0.000000000000D+00 0.000000000000D+00-1.739235798655D+00
     0.000000000000D+00 0.000000000000D+00 0.000000000000D+00 5.153700811386D+03
     4.752000000000D+05 0.000000000000D+00-1.797336397704D-01 0.000000000000D+00
     9.599310884343D-01 0.000000000000D+00-8.127667903135D-01 0.000000000000D+00
     0.000000000000D+00 1.000000000000D+00 2.245000000000D+03 0.000000000000D+00
     1.200000000000D+00 0.000000000000D+00 0.000000000000D+00 0.000000000000D+00
     4.752000000000D+05 0.000000000000D+00 0.000000000000D+00 0.000000000000D+00
G13 2023 01 20 12 00 00 0.000000000000D+00 0.000000000000D+00 0.000000000000D+00
     0.000000000000D+00 0.000000000000D+00 0.000000000000D+00 5.695108966320D-01
     0.000000000000D+00 0.000000000000D+00 0.000000000000D+00 5.153700811386D+03
     4.752000000000D+05 0.000000000000D+00-2.224538689034D+00 0.000000000000D+00
     9.599310884343D-01 0.000000000000D+00 1.506183742484D+00 0.000000000000D+00
     0.000000000000D+00 1.000000000000D+00 2.245000000000D+03 0.000000000000D+00
     1.200000000000D+00 0.000000000000D+00 0.000000000000D+00 0.000000000000D+00
     4.752000000000D+05 0.000000000000D+00 0.000000000000D+00 0.000000000000D+00
G14 2023 01 20 12 00 00 0.000000000000D+00 0.000000000000D+00 0.000000000000D+00
     0.000000000000D+00 0.000000000000D+00 0.000000000000D+00 1.699939569078D-01
     0.000000000000D+00 0.000000000000D+00 0.000000000000D+00 5.153700811386D+03
     4.752000000000D+05 0.000000000000D+00-2.243345623001D+00 0.000000000000D+00
     9.599310884343D-01 0.000000000000D+00-2.099498390684D+00 0.000000000000D+00
     0.000000000000D+00 1.000000000000D+00 2.245000000000D+03 0.000000000000D+00
     1.200000000000D+00 0.000000000000D+00 0.000000000000D+00 0.000000000000D+00
     4.752000000000D+05 0.000000000000D+00 0.000000000000D+00 0.000000000000D+00
G15 2023 01 20 12 00 00 0.000000000000D+00 0.000000000000D+00 0.000000000000D+00
     0.000000000000D+00 0.000000000000D+00 0.000000000000D+00 6.752488218638D-01
     0.000000000000D+00 0.000000000000D+00 0.000000000000D+00 5.153700811386D+03
     4.752000000000D+05 0.000000000000D+00-2.292310958421D+00 0.000000000000D+00
     9.599310884343D-01 0.000000000000D+00-7.419977186119D-01 0.000000000000D+00
     0.000000000000D+00 1.000000000000D+00 2.245000000000D+03 0.000000000000D+00
     1.200000000000D+00 0.000000000000D+00 0.000000000000D+00 0.000000000000D+00
     4.752000000000D+05 0.000000000000D+00 0.000000000000D+00 0.000000000000D+00
G16 2023 01 20 12 00 00 0.000000000000D+00 0.000000000000D+00 0.000000000000D+00
     0.000000000000D+00 0.000000000000D+00 0.000000000000D+00 2.024774393101D+00
     0.000000000000D+00 0.000000000000D+00 0.000000000000D+00 5.153700811386D+03
     4.752000000000D+05 0.000000000000D+00-1.629613688408D-01 0.000000000000D+00
     9.599310884343D-01 0.000000000000D+00-3.859782224565D-01 0.000000000000D+00
     0.000000000000D+00 1.000000000000D+00 2.245000000000D+03 0.000000000000D+00
     1.200000000000D+00 0.000000000000D+00 0.000000000000D+00 0.000000000000D+00
     4.752000000000D+05 0.000000000000D+00 0.000000000000D+00 0.000000000000D+00
G17 2023 01 20 12 00 00 0.000000000000D+00 0.000000000000D+00 0.000000000000D+00
     0.000000000000D+00 0.000000000000D+00 0.000000000000D+00 9.387819377730D-01
     0.000000000000D+00 0.000000000000D+00 0.000000000000D+00 5.153700811386D+03
     4.752000000000D+05 0.000000000000D+00 8.785318088219D-01 0.000000000000D+00
     9.599310884343D-01 0.000000000000D+00-2.750026464429D+00 0.000000000000D+00
     0.000000000000D+00 1.000000000000D+00 2.245000000000D+03 0.000000000000D+00
     1.200000000000D+00 0.000000000000D+00 0.000000000000D+00 0.000000000000D+00
     4.752000000000D+05 0.000000000000D+00 0.000000000000D+00 0.000000000000D+00
G18 2023 01 20 12 00 00 0.000000000000D+00 0.000000000000D+00 0.000000000000D+00
     0.000000000000D+00 0.000000000000D+00 0.000000000000D+00 2.152733763076D+00
     0.000000000000D+00 0.000000000000D+00 0.000000000000D+00 5.153700811386D+03
     4.752000000000D+05 0.000000000000D+00 2.989342207702D+00 0.000000000000D+00
     9.599310884343D-01 0.000000000000D+00-2.438257574735D+00 0.000000000000D+00
     0.000000000000D+00 1.000000000000D+00 2.245000000000D+03 0.000000000000D+00
     1.200000000000D+00 0.000000000000D+00 0.000000000000D+00 0.000000000000D+00
     4.752000000000D+05 0.000000000000D+00 0.000000000000D+00 0.000000000000D+00
G19 2023 01 20 12 00 00 0.000000000000D+00 0.000000000000D+00 0.000000000000D+00
     0.000000000000D+00 0.000000000000D+00 0.000000000000D+00 1.971052492191D-01
     0.000000000000D+00 0.000000000000D+00 0.000000000000D+00 5.153700811386D+03
     4.752000000000D+05 0.000000000000D+00 9.348925301407D-01 0.000000000000D+00
     9.599310884343D-01 0.000000000000D+00-3.912845847450D-01 0.000000000000D+00
     0.000000000000D+00 1.000000000000D+00 2.245000000000D+03 0.000000000000D+00
     1.200000000000D+00 0.000000000000D+00 0.000000000000D+00 0.000000000000D+00
     4.752000000000D+05 0.000000000000D+00 0.000000000000D+00 0.000000000000D+00
G20 2023 01 20 12 00 00 0.000000000000D+00 0.000000000000D+00 0.000000000000D+00
     0.000000000000D+00 0.000000000000D+00 0.000000000000D+00 2.299922069146D+00
     0.000000000000D+00 0.000000000000D+00 0.000000000000D+00 5.153700811386D+03
     4.752000000000D+05 0.000000000000D+00 2.935591453659D+00 0.000000000000D+00
     9.599310884343D-01 0.000000000000D+00 1.314607619941D+00 0.000000000000D+00
     0.000000000000D+00 1.000000000000D+00 2.245000000000D+03 0.000000000000D+00
     1.200000000000D+00 0.000000000000D+00 0.000000000000D+00 0.000000000000D+00
     4.752000000000D+05 0.000000000000D+00 0.000000000000D+00 0.000000000000D+00
G21 2023 01 20 12 00 00 0.000000000000D+00 0.000000000000D+00 0.000000000000D+00
     0.000000000000D+00 0.000000000000D+00 0.000000000000D+00-2.854202730463D+00
     0.000000000000D+00 0.000000000000D+00 0.000000000000D+00 5.153700811386D+03
     4.752000000000D+05 0.000000000000D+00 1.930690163989D+00 0.000000000000D+00
     9.599310884343D-01 0.000000000000D+00-2.648899077668D+00 0.000000000000D+00
     0.000000000000D+00 1.000000000000D+00 2.245000000000D+03 0.000000000000D+00
     1.200000000000D+00 0.000000000000D+00 0.000000000000D+00 0.000000000000D+00
     4.752000000000D+05 0.000000000000D+00 0.000000000000D+00 0.000000000000D+00
G22 2023 01 20 12 00 00 0.000000000000D+00 0.000000000000D+00 0.000000000000D+00
     0.000000000000D+00 0.000000000000D+00 0.000000000000D+00 1.027980169717D+00
     0.000000000000D+00 0.000000000000D+00 0.000000000000D+00 5.153700811386D+03
     4.752000000000D+05 0.000000000000D+00 2.995270962635D+00 0.000000000000D+00
     9.599310884343D-01 0.000000000000D+00-1.823396801350D+00 0.000000000000D+00
     0.000000000000D+00 1.000000000000D+00 2.245000000000D+03 0.000000000000D+00
     1.200000000000D+00 0.000000000000D+00 0.000000000000D+00 0.000000000000D+00
     4.752000000000D+05 0.000000000000D+00 0.000000000000D+00 0.000000000000D+00
G23 2023 01 20 12 00 00 0.000000000000D+00 0.000000000000D+00 0.000000000000D+00
     0.000000000000D+00 0.000000000000D+00 0.000000000000D+00-3.420350950432D-01
     0.000000000000D+00 0.000000000000D+00 0.000000000000D+00 5.153700811386D+03
     4.752000000000D+05 0.000000000000D+00-2.273904685532D+00 0.000000000000D+00
     9.599310884343D-01 0.000000000000D+00 2.882402657652D+00 0.000000000000D+00
     0.000000000000D+00 1.000000000000D+00 2.245000000000D+03 0.000000000000D+00
     1.200000000000D+00 0.000000000000D+00 0.000000000000D+00 0.000000000000D+00
     4.752000000000D+05 0.000000000000D+00 0.000000000000D+00 0.000000000000D+00
G24 2023 01 20 12 00 00 0.000000000000D+00 0.000000000000D+00 0.000000000000D+00
     0.000000000000D+00 0.000000000000D+00 0.000000000000D+00 2.051058133135D+00
     0.000000000000D+00 0.000000000000D+00 0.000000000000D+00 5.153700811386D+03
     4.752000000000D+05 0.000000000000D+00 1.960957880533D+00 0.000000000000D+00
     9.599310884343D-01 0.000000000000D+00-6.395231496090D-01 0.000000000000D+00
     0.000000000000D+00 1.000000000000D+00 2.245000000000D+03 0.000000000000D+00
     1.200000000000D+00 0.000000000000D+00 0.000000000000D+00 0.000000000000D+00
     4.752000000000D+05 0.000000000000D+00 0.000000000000D+00 0.000000000000D+00
G25 2023 01 20 12 00 00 0.000000000000D+00 0.000000000000D+00 0.000000000000D+00
     0.000000000000D+00 0.000000000000D+00 0.000000000000D+00 2.572389443740D+00
     0.000000000000D+00 0.000000000000D+00 0.000000000000D+00 5.153700811386D+03
     4.752000000000D+05 0.000000000000D+00-1.326113587668D+00 0.000000000000D+00
     9.599310884343D-01 0.000000000000D+00-1.229411482746D+00 0.000000000000D+00
     0.000000000000D+00 1.000000000000D+00 2.245000000000D+03 0.000000000000D+00
     1.200000000000D+00 0.000000000000D+00 0.000000000000D+00 0.000000000000D+00
     4.752000000000D+05 0.000000000000D+00 0.000000000000D+00 0.000000000000D+00
G26 2023 01 20 12 00 00 0.000000000000D+00 0.000000000000D+00 0.000000000000D+00
     0.000000000000D+00 0.000000000000D+00 0.000000000000D+00-7.811947257703D-01
     0.000000000000D+00 0.000000000000D+00 0.000000000000D+00 5.153700811386D+03
     4.752000000000D+05 0.000000000000D+00-2.226644163158D+00 0.000000000000D+00
     9.599310884343D-01 0.000000000000D+00 9.676722291696D-01 0.000000000000D+00
     0.000000000000D+00 1.000000000000D+00 2.245000000000D+03 0.000000000000D+00
     1.200000000000D+00 0.000000000000D+00 0.000000000000D+00 0.000000000000D+00
     4.752000000000D+05 0.000000000000D+00 0.000000000000D+00 0.000000000000D+00
G27 2023 01 20 12 00 00 0.000000000000D+00 0.000000000000D+00 0.000000000000D+00
     0.000000000000D+00 0.000000000000D+00 0.000000000000D+00 1.644203028090D+00
     0.000000000000D+00 0.000000000000D+00 0.000000000000D+00 5.153700811386D+03
     4.752000000000D+05 0.000000000000D+00-1.290232783191D+00 0.000000000000D+00
     9.599310884343D-01 0.000000000000D+00-1.651172995949D+00 0.000000000000D+00
     0.000000000000D+00 1.000000000000D+00 2.245000000000D+03 0.000000000000D+00
     1.200000000000D+00 0.000000000000D+00 0.000000000000D+00 0.000000000000D+00
     4.752000000000D+05 0.000000000000D+00 0.000000000000D+00 0.000000000000D+00
G28 2023 01 20 12 00 00 0.000000000000D+00 0.000000000000D+00 0.000000000000D+00
     0.000000000000D+00 0.000000000000D+00 0.000000000000D+00 1.363019069707D+00
     0.000000000000D+00 0.000000000000D+00 0.000000000000D+00 5.153700811386D+03
     4.752000000000D+05 0.000000000000D+00-1.546251817880D-01 0.000000000000D+00
     9.599310884343D-01 0.000000000000D+00-2.057136774267D+00 0.000000000000D+00
     0.000000000000D+00 1.000000000000D+00 2.245000000000D+03 0.000000000000D+00
     1.200000000000D+00 0.000000000000D+00 0.000000000000D+00 0.000000000000D+00
     4.752000000000D+05 0.000000000000D+00 0.000000000000D+00 0.000000000000D+00
G29 2023 01 20 12 00 00 0.000000000000D+00 0.000000000000D+00 0.000000000000D+00
     0.000000000000D+00 0.000000000000D+00 0.000000000000D+00-2.801505192588D+00
     0.000000000000D+00 0.000000000000D+00 0.000000000000D+00 5.153700811386D+03
     4.752000000000D+05 0.000000000000D+00 8.867140954298D-01 0.000000000000D+00
     9.599310884343D-01 0.000000000000D+00-1.343433499055D+00 0.000000000000D+00
     0.000000000000D+00 1.000000000000D+00 2.245000000000D+03 0.000000000000D+00
     1.200000000000D+00 0.000000000000D+00 0.000000000000D+00 0.000000000000D+00
     4.752000000000D+05 0.000000000000D+00 0.000000000000D+00 0.000000000000D+00
G30 2023 01 20 12 00 00 0.000000000000D+00 0.000000000000D+00 0.000000000000D+00
     0.000000000000D+00 0.000000000000D+00 0.000000000000D+00 1.795055945411D+00
     0.000000000000D+00 0.000000000000D+00 0.000000000000D+00 5.153700811386D+03
     4.752000000000D+05 0.000000000000D+00-2.256848870357D-01 0.000000000000D+00
     9.599310884343D-01 0.000000000000D+00 1.413174986376D+00 0.000000000000D+00
     0.000000000000D+00 1.000000000000D+00 2.245000000000D+03 0.000000000000D+00
     1.200000000000D+00 0.000000000000D+00 0.000000000000D+00 0.000000000000D+00
     4.752000000000D+05 0.000000000000D+00 0.000000000000D+00 0.000000000000D+00
G31 2023 01 20 12 00 00 0.000000000000D+00 0.000000000000D+00 0.000000000000D+00
     0.000000000000D+00 0.000000000000D+00 0.000000000000D+00-2.003461758418D+00
     0.000000000000D+00 0.000000000000D+00 0.000000000000D+00 5.153700811386D+03
     4.752000000000D+05 0.000000000000D+00-1.234003905902D+00 0.000000000000D+00
     9.599310884343D-01 0.000000000000D+00-1.193828820974D+00 0.000000000000D+00
     0.000000000000D+00 1.000000000000D+00 2.245000000000D+03 0.000000000000D+00
     1.200000000000D+00 0.000000000000D+00 0.000000000000D+00 0.000000000000D+00
     4.752000000000D+05 0.000000000000D+00 0.000000000000D+00 0.000000000000D+00
EOF!
